ONEWEB-0385             
1 49311U 21090AJ  22055.91667824  .00064736  00000+0  64860-2 0  9998
2 49311  87.1944 246.0980 0003733 156.7701  81.3916 14.91054644  3543
ONEWEB-0386             
1 49312U 21090AK  22055.91667824  .00061937  00000+0  62022-2 0  9997
2 49312  87.2027 246.2462 0003889 117.1459  17.0573 14.91091484  3545
ONEWEB-0387             
1 49313U 21090AL  22055.91667824  .00054912  00000+0  55063-2 0  9990
2 49313  87.2027 246.2403 0002813 146.5947 212.0061 14.91077026  3540
ONEWEB-0388             
1 49314U 21090AM  22055.91667824  .00041969  00000+0  10452+0 0  9999
2 49314  87.9122 257.6333 0001253  85.2712 325.5262 13.19593874  3296
ONEWEB-0389             
1 50469U 21132A   22055.91667824 -.00060467  00000+0 -59803-2 0  9991
2 50469  87.2245 335.1767 0005202  84.0045 118.3667 14.92323644  3548
ONEWEB-0390             
1 50470U 21132B   22055.91667824 -.00055662  00000+0 -55017-2 0  9997
2 50470  87.2290 335.1996 0004688  93.5959 270.9297 14.92324522  3551
ONEWEB-0391             
1 50471U 21132C   22055.91667824 -.00060214  00000+0 -59489-2 0  9994
2 50471  87.2233 335.1609 0004239  96.4002 192.3607 14.92369401  3549
ONEWEB-0392             
1 50472U 21132D   22055.91667824  .00031401  00000+0  30677-2 0  9997
2 50472  87.2275 335.1948 0005186  61.7653  26.0971 14.92233299  3543
ONEWEB-0393             
1 50473U 21132E   22055.91667824 -.00054786  00000+0 -54195-2 0  9992
2 50473  87.2260 335.1763 0005116  68.9619 317.3244 14.92286003  3558
ONEWEB-0394             
1 50474U 21132F   22056.00001157 -.00025260  00000+0 -24870-2 0  9997
2 50474  87.2291 335.1864 0005058 102.4450  92.8072 14.92330170 10251
ONEWEB-0395             
1 50475U 21132G   22056.00001157 -.00995852  00000+0 -28843+0 0  9992
2 50475  87.5447 336.5583 0020450  90.1704  34.9942 14.47675472 10204
ONEWEB-0396             
1 50476U 21132H   22056.00001157 -.00022127  00000+0 -21791-2 0  9997
2 50476  87.2327 335.2074 0004825  60.2149 264.3952 14.92308509 10269
ONEWEB-0397             
1 50477U 21132J   22055.91667824 -.00055466  00000+0 -54532-2 0  9997
2 50477  87.2329 335.2371 0005523  93.0152 338.9198 14.92532349  3551
ONEWEB-0398             
1 50478U 21132K   22055.91667824 -.00988446  00000+0 -29527+0 0  9994
2 50478  87.5312 336.5945 0023949  91.0434 321.6820 14.46117893  3521
ONEWEB-0399             
1 50479U 21132L   22055.91667824 -.01024189  00000+0 -32115+0 0  9998
2 50479  87.5113 336.5771 0022357  92.1033 142.7279 14.43915297  3528
ONEWEB-0400             
1 50480U 21132M   22055.91667824 -.00056548  00000+0 -55951-2 0  9999
2 50480  87.2281 335.1829 0004110  80.1090 269.9537 14.92290255  3544
ONEWEB-0401             
1 50481U 21132N   22055.91667824 -.00060817  00000+0 -60200-2 0  9997
2 50481  87.2307 335.2149 0004349 109.9666 121.4320 14.92295504  3558
ONEWEB-0402             
1 50482U 21132P   22055.91667824 -.00056211  00000+0 -55634-2 0  9996
2 50482  87.2310 335.2182 0004570 100.2291 254.8205 14.92274689  3547
ONEWEB-0403             
1 50483U 21132Q   22055.91667824 -.00054946  00000+0 -54194-2 0  9990
2 50483  87.2285 335.2010 0003230  95.0721 325.9193 14.92410891  3554
ONEWEB-0404             
1 50484U 21132R   22055.91667824 -.01012946  00000+0 -31371+0 0  9995
2 50484  87.5186 336.5760 0023626  92.9010 199.8793 14.44469066  3528
ONEWEB-0405             
1 50485U 21132S   22055.91667824 -.00057095  00000+0 -56495-2 0  9996
2 50485  87.3060 335.4514 0004060  52.1106 289.8346 14.92291110  3540
ONEWEB-0406             
1 50486U 21132T   22055.91667824 -.00060886  00000+0 -60179-2 0  9993
2 50486  87.2332 335.2281 0005229  62.9171 191.3345 14.92351568  3551
ONEWEB-0407             
1 50487U 21132U   22055.91667824 -.00059436  00000+0 -58744-2 0  9998
2 50487  87.2246 335.1747 0004766  57.2137  92.9695 14.92347256  3559
ONEWEB-0409             
1 50488U 21132V   22055.91667824 -.01033329  00000+0 -31192+0 0  9998
2 50488  87.5292 336.5746 0023399  93.7080 355.9715 14.45772408  3524
ONEWEB-0412             
1 50489U 21132W   22055.91667824 -.00949062  00000+0 -74884-1 0  9995
2 50489  87.2711 335.2181 0004418  78.6666 157.8778 15.03872099  3575
ONEWEB-0413             
1 50490U 21132X   22055.91667824 -.00056815  00000+0 -56229-2 0  9996
2 50490  87.2231 335.1519 0005236  99.6627 339.7036 14.92277019  3551
ONEWEB-0414             
1 50491U 21132Y   22055.91667824 -.00058208  00000+0 -57301-2 0  9997
2 50491  87.2282 335.1995 0005298  56.4436  63.9781 14.92497081  3559
ONEWEB-0417             
1 50492U 21132Z   22055.91667824 -.00060453  00000+0 -59775-2 0  9990
2 50492  87.2308 335.2218 0005331  67.4674 134.5226 14.92333012  3554
ONEWEB-0418             
1 50493U 21132AA  22055.91667824 -.00055928  00000+0 -55308-2 0  9990
2 50493  87.2344 335.2545 0006441  83.8357 356.6213 14.92297995  3553
ONEWEB-0419             
1 50494U 21132AB  22055.91667824 -.00060266  00000+0 -59226-2 0  9995
2 50494  87.2237 335.1617 0004729  50.8717 229.0625 14.92578481  3557
ONEWEB-0420             
1 50495U 21132AC  22055.91667824 -.00060705  00000+0 -59656-2 0  9991
2 50495  87.2181 335.1176 0004859 107.1140 161.9518 14.92580780  3545
ONEWEB-0421             
1 50496U 21132AD  22055.91667824 -.00060171  00000+0 -59538-2 0  9998
2 50496  87.2199 335.1357 0004430 117.9139  64.9522 14.92307031  3552
ONEWEB-0424             
1 50497U 21132AE  22055.91667824 -.00055960  00000+0 -55320-2 0  9994
2 50497  87.2375 335.2643 0005422  65.8331  15.3628 14.92317259  3555
ONEWEB-0426             
1 50498U 21132AF  22055.91667824 -.00055640  00000+0 -55147-2 0  9997
2 50498  87.2241 335.1704 0003380  76.0202   0.9010 14.92219444  3559
ONEWEB-0427             
1 50499U 21132AG  22055.91667824 -.00060029  00000+0 -59427-2 0  9990
2 50499  87.2185 335.1267 0002815  50.6696 241.6452 14.92291707  3543
ONEWEB-0429             
1 50500U 21132AH  22055.91667824 -.00055616  00000+0 -55113-2 0  9997
2 50500  87.2211 335.1332 0004446 107.6620 329.6246 14.92223305  3559
ONEWEB-0430             
1 50501U 21132AJ  22055.91667824 -.00056834  00000+0 -56230-2 0  9992
2 50501  87.2351 335.2574 0004350  60.6534 285.1866 14.92293778  3544
ONEWEB-0432             
1 50502U 21132AK  22055.91667824 -.00060734  00000+0 -59704-2 0  9996
2 50502  87.2212 335.1409 0005797 101.8700 166.5393 14.92563924  3546
ONEWEB-0440             
1 50503U 21132AL  22055.91667824 -.00056014  00000+0 -55542-2 0  9999
2 50503  87.2235 335.1529 0004462 102.0037 256.2778 14.92200487  3556
ONEWEB-0450             
1 50504U 21132AM  22055.91667824 -.00060613  00000+0 -59936-2 0  9991
2 50504  87.2331 335.2358 0004418  82.9030 130.1412 14.92335640  3550
ONEWEB-0410             
1 51622U 22012A   22055.91667824 -.00047446  00000+0 -15877-2 0  9996
2 51622  87.3995 356.7301 0017064 192.2079  23.1551 15.31091191  2844
ONEWEB-0411             
1 51623U 22012B   22055.91667824 -.01017148  00000+0 -40749-1 0  9999
2 51623  87.4024 356.7530 0014852 196.9208 236.4398 15.27671809  2865
ONEWEB-0415             
1 51624U 22012C   22056.00001157 -.01008430  00000+0 -39856-1 0  9993
2 51624  87.4019 356.7226 0016341 196.5985 350.1022 15.28061608  3449
ONEWEB-0416             
1 51625U 22012D   22056.00001157 -.00047816  00000+0 -16401-2 0  9996
2 51625  87.4018 356.7099 0014196 195.5705  79.6430 15.30340082  3469
ONEWEB-0422             
1 51626U 22012E   22056.00001157 -.00046543  00000+0 -15697-2 0  9999
2 51626  87.4010 356.7052 0016578 195.1811 106.9924 15.30844015  3468
ONEWEB-0423             
1 51627U 22012F   22056.00001157 -.00046413  00000+0 -15473-2 0  9998
2 51627  87.4024 356.7054 0017324 190.4117 130.0627 15.31203835  3461
ONEWEB-0425             
1 51628U 22012G   22056.00001157 -.00897652  00000+0 -34055-1 0  9994
2 51628  87.4018 356.7188 0016925 186.9255  36.0049 15.29501526  3459
ONEWEB-0428             
1 51629U 22012H   22056.00001157 -.01028805  00000+0 -42070-1 0  9998
2 51629  87.4024 356.7269 0014151 196.2872 324.9579 15.27043622  3447
ONEWEB-0431             
1 51630U 22012J   22056.00001157 -.01033673  00000+0 -39374-1 0  9992
2 51630  87.4037 356.7200 0017186 188.4767  27.4824 15.29307615  3451
ONEWEB-0434             
1 51631U 22012K   22056.00001157 -.00465669  00000+0 -17220-1 0  9992
2 51631  87.4030 356.7192 0016255 183.8250  47.3696 15.29583134  3457
ONEWEB-0435             
1 51632U 22012L   22056.00001157 -.01028383  00000+0 -40432-1 0  9993
2 51632  87.4050 356.7284 0016693 195.8955 354.8517 15.28276965  3440
ONEWEB-0436             
1 51633U 22012M   22056.00001157 -.00090484  00000+0 -29782-2 0  9990
2 51633  87.4020 356.6993 0016144 182.2952 167.0401 15.31803168  3476
ONEWEB-0438             
1 51634U 22012N   22056.00001157 -.00048365  00000+0 -16684-2 0  9999
2 51634  87.4043 356.7151 0014040 191.5147  75.9431 15.30159944  3454
ONEWEB-0439             
1 51635U 22012P   22056.00001157 -.00259025  00000+0 -93141-2 0  9990
2 51635  87.4008 356.7119 0015718 184.2914  53.2793 15.29644588  3455
ONEWEB-0442             
1 51636U 22012Q   22056.00001157 -.00047803  00000+0 -15492-2 0  9993
2 51636  87.4003 356.6929 0014241 179.7784 189.3753 15.32167484  3471
ONEWEB-0443             
1 51637U 22012R   22056.00001157 -.00046935  00000+0 -15432-2 0  9993
2 51637  87.4009 356.7008 0016458 183.7179 160.0328 15.31665656  3479
ONEWEB-0444             
1 51638U 22012S   22056.00001157 -.00047759  00000+0 -16349-2 0  9997
2 51638  87.4024 356.7134 0014506 196.3610  83.2705 15.30399624  3461
ONEWEB-0445             
1 51639U 22012T   22056.00001157 -.00053078  00000+0 -18511-2 0  9992
2 51639  87.4019 356.7135 0014641 185.3081  64.5620 15.29813407  3452
ONEWEB-0446             
1 51640U 22012U   22056.00001157 -.00048164  00000+0 -16555-2 0  9990
2 51640  87.4016 356.7105 0013679 193.1797  80.4395 15.30280945  3463
